********  Ephemeris for PRN-28  ********
PRN:                       28
Week:                      1982
Time of Ephemeris (s):     568800
Square Root of A(m^1/2):   5153.67246628
Eccentricity:              0.019910319242600
Mean anomaly (deg):        110.212948517993990
Inclination (deg):         56.558110630131530
Long of asc. node (deg):   -122.345497207476900
Argument of perigee (deg): -87.949945991908876
d-inclination/dt (deg/s):  -4.072262527187100e-09
d-Omega/dt (deg/s):        -4.254798113831262e-07
DeltaN (mean motion corr): 3.59443543695000e-09
Cuc:                       1.65589153767000e-06
Cus:                       1.00824981928000e-05
Crc:                       1.94343750000000e+02
Crs:                       3.46250000000000e+01
Cic:                       3.16649675369000e-07
Cis:                       -2.75671482086000e-07
Clock ref. time (s):       568800
af0:                       6.77471049130000e-04
af1:                       3.41060513165000e-12
af2:                       0.00000000000000e+00
Group delay (s):           -1.11758708954000e-08

********  Ephemeris for PRN-29  ********
PRN:                       29
Week:                      1982
Time of Ephemeris (s):     568800
Square Root of A(m^1/2):   5153.75444603
Eccentricity:              0.000416956376284
Mean anomaly (deg):        139.562256066107240
Inclination (deg):         56.311028469354568
Long of asc. node (deg):   -63.767970688639785
Argument of perigee (deg): 44.320734841749683
d-inclination/dt (deg/s):  2.201886715007906e-08
d-Omega/dt (deg/s):        -4.653634434403778e-07
DeltaN (mean motion corr): 4.12481471201400e-09
Cuc:                       3.33413481712300e-06
Cus:                       4.88571822643300e-06
Crc:                       2.96656250000000e+02
Crs:                       6.36250000000000e+01
Cic:                       4.28408384323100e-08
Cis:                       -1.30385160446200e-08
Clock ref. time (s):       568800
af0:                       5.14943618327400e-04
af1:                       -5.34328137291600e-12
af2:                       0.00000000000000e+00
Group delay (s):           -1.02445483207700e-08

********  Ephemeris for PRN-30  ********
PRN:                       30
Week:                      1982
Time of Ephemeris (s):     568800
Square Root of A(m^1/2):   5153.58277893
Eccentricity:              0.003022723598406
Mean anomaly (deg):        -98.321743905520435
Inclination (deg):         54.195050876588020
Long of asc. node (deg):   175.971009749911560
Argument of perigee (deg): -177.251178910972100
d-inclination/dt (deg/s):  -2.025899468234827e-08
d-Omega/dt (deg/s):        -4.780303968481304e-07
DeltaN (mean motion corr): 5.01949459774700e-09
Cuc:                       -5.06639480590800e-07
Cus:                       6.49690628051800e-06
Crc:                       2.46500000000000e+02
Crs:                       -7.53125000000000e+00
Cic:                       -5.58793544769300e-09
Cis:                       -5.21540641784700e-08
Clock ref. time (s):       568800
af0:                       1.14816706627600e-04
af1:                       -3.18323145620500e-12
af2:                       0.00000000000000e+00
Group delay (s):           3.72529029846200e-09

********  Ephemeris for PRN-31  ********
PRN:                       31
Week:                      1982
Time of Ephemeris (s):     568800
Square Root of A(m^1/2):   5153.58186150
Eccentricity:              0.008829286554828
Mean anomaly (deg):        -116.644134297968790
Inclination (deg):         55.285419551653447
Long of asc. node (deg):   174.610611526317400
Argument of perigee (deg): -10.366739435121085
d-inclination/dt (deg/s):  -1.941998503097920e-08
d-Omega/dt (deg/s):        -4.693129290216361e-07
DeltaN (mean motion corr): 4.72091077341500e-09
Cuc:                       -4.52622771263100e-07
Cus:                       6.94394111633300e-06
Crc:                       2.51156250000000e+02
Crs:                       -7.68750000000000e+00
Cic:                       -9.49949026107800e-08
Cis:                       -9.49949026107800e-08
Clock ref. time (s):       568800
af0:                       1.50476116687100e-04
af1:                       -2.50111042987600e-12
af2:                       0.00000000000000e+00
Group delay (s):           -1.35041773319200e-08

********  Ephemeris for PRN-32  ********
PRN:                       32
Week:                      1982
Time of Ephemeris (s):     568800
Square Root of A(m^1/2):   5153.61889648
Eccentricity:              0.001545935985632
Mean anomaly (deg):        104.574133800338660
Inclination (deg):         54.830584209414788
Long of asc. node (deg):   112.402460798632960
Argument of perigee (deg): -154.360948177057940
d-inclination/dt (deg/s):  1.903117653366869e-08
d-Omega/dt (deg/s):        -4.708067719444661e-07
DeltaN (mean motion corr): 4.85377382730700e-09
Cuc:                       2.14204192161600e-06
Cus:                       8.12672078609500e-06
Crc:                       2.20750000000000e+02
Crs:                       4.07812500000000e+01
Cic:                       -1.86264514923100e-09
Cis:                       5.77419996261600e-08
Clock ref. time (s):       568800
af0:                       -5.32354228198500e-04
af1:                       -7.95807864051300e-13
af2:                       0.00000000000000e+00
Group delay (s):           4.65661287307700e-10

********  Ephemeris for PRN- 4  ********
PRN:                       4
Week:                      1982
Time of Ephemeris (s):     574200
Square Root of A(m^1/2):   5153.67331187
Eccentricity:              0.009346964536235
Mean anomaly (deg):        174.540262422525270
Inclination (deg):         56.174330776556843
Long of asc. node (deg):   -125.611982792638300
Argument of perigee (deg): 51.157354242166846
d-inclination/dt (deg/s):  -1.062062437995523e-08
d-Omega/dt (deg/s):        -4.324546720724144e-07
DeltaN (mean motion corr): 4.95520640423600e-09
Cuc:                       2.33016908168800e-06
Cus:                       1.16331502795200e-05
Crc:                       1.63972656250000e+02
Crs:                       4.63007812500000e+01
Cic:                       4.84287738800000e-08
Cis:                       -8.84756445884700e-08
Clock ref. time (s):       574200
af0:                       3.08005255647000e-05
af1:                       2.07478478841900e-12
af2:                       0.00000000000000e+00
Group delay (s):           -1.95577740669300e-08

********  Ephemeris for PRN-10  ********
PRN:                       10
Week:                      1982
Time of Ephemeris (s):     574200
Square Root of A(m^1/2):   5153.67643521
Eccentricity:              0.003126710013021
Mean anomaly (deg):        -135.590700125313020
Inclination (deg):         55.040393974633339
Long of asc. node (deg):   52.654002690690348
Argument of perigee (deg): -164.535520453955570
d-inclination/dt (deg/s):  4.716866897070001e-09
d-Omega/dt (deg/s):        -4.511891260605873e-07
DeltaN (mean motion corr): 4.34660962516600e-09
Cuc:                       -2.92342156171800e-06
Cus:                       1.24489888548900e-05
Crc:                       1.37671875000000e+02
Crs:                       -5.63242187500000e+01
Cic:                       8.38190317153900e-09
Cis:                       -4.65661287307700e-08
Clock ref. time (s):       574200
af0:                       1.41885742778000e-04
af1:                       5.96145355302700e-12
af2:                       0.00000000000000e+00
Group delay (s):           1.86264514923100e-09

********  Ephemeris for PRN-12  ********
PRN:                       12
Week:                      1982
Time of Ephemeris (s):     574200
Square Root of A(m^1/2):   5153.66657137
Eccentricity:              0.006763069948647
Mean anomaly (deg):        -93.076270110911878
Inclination (deg):         56.599582652563569
Long of asc. node (deg):   -123.679339005601750
Argument of perigee (deg): 52.216411228290177
d-inclination/dt (deg/s):  -8.164988685164318e-09
d-Omega/dt (deg/s):        -4.332322900424617e-07
DeltaN (mean motion corr): 3.69979696853700e-09
Cuc:                       2.48569995164900e-06
Cus:                       9.63639467954600e-06
Crc:                       2.09109375000000e+02
Crs:                       4.87460937500000e+01
Cic:                       1.55530869960800e-07
Cis:                       -2.98023223877000e-08
Clock ref. time (s):       574200
af0:                       3.56807344360300e-04
af1:                       -1.84741111297600e-12
af2:                       0.00000000000000e+00
Group delay (s):           -1.25728547573100e-08

********  Ephemeris for PRN-15  ********
PRN:                       15
Week:                      1982
Time of Ephemeris (s):     574200
Square Root of A(m^1/2):   5153.66788453
Eccentricity:              0.010117592290040
Mean anomaly (deg):        55.562089746820483
Inclination (deg):         53.176676798614459
Long of asc. node (deg):   108.302624733189380
Argument of perigee (deg): 37.629366028120273
d-inclination/dt (deg/s):  9.003997547553313e-09
d-Omega/dt (deg/s):        -4.947766596430172e-07
DeltaN (mean motion corr): 5.58666127829500e-09
Cuc:                       2.29943543672600e-06
Cus:                       7.86874443292600e-06
Crc:                       2.10519531250000e+02
Crs:                       4.15898437500000e+01
Cic:                       -9.77888703346300e-08
Cis:                       1.14552676677700e-07
Clock ref. time (s):       574200
af0:                       -3.57389391865600e-04
af1:                       4.97379915032100e-14
af2:                       0.00000000000000e+00
Group delay (s):           -1.07102096080800e-08

